# From MPC114603
C/2018 O1 (ATLAS),e,154.0065,87.7651,162.6995,28.08178,0.0066232,0.94448678,10.0846,11/02.0/2022,2000,g 17.0,4.0
# From MPEC 2022-M21
P/2018 P3 (PANSTARRS),e,8.9142,59.1591,305.9723,3.004490,0.1892552,0.41710762,280.5720,11/02.0/2022,2000,g 14.5,4.0
# From MPC114603
P/2018 P4 (PANSTARRS),e,23.1094,353.0623,8.4066,6.683187,0.0570465,0.45062966,82.9425,11/02.0/2022,2000,g 12.0,4.0
# From MPEC 2021-P47
C/2018 P5 (PANSTARRS),e,7.2474,216.2032,131.9380,12.84093,0.0214195,0.64292197,28.7650,11/02.0/2022,2000,g 11.0,4.0
# From MPC118841
C/2018 R3 (Lemmon),e,69.7186,324.6058,112.7481,1560,0.0000160,0.99917700,0.0000,06/07.6910/2019,2000,g  9.5,4.0
# From MPEC 2022-M21
C/2018 R4 (Fuls),e,11.6712,298.5222,345.3245,347.1784,0.0001524,0.99503863,0.0000,03/02.7752/2018,2000,g 14.0,4.0
# From MPC114603
C/2018 R5 (Lemmon),e,103.7491,171.1151,178.1819,22.87923,0.0090062,0.84129788,12.5344,11/02.0/2022,2000,g 11.5,4.0
# From MPEC 2022-QC6
C/2018 S2 (TESS),e,64.1609,85.1040,290.7941,14.35768,0.0181166,0.61878851,26.3847,11/02.0/2022,2000,g  7.5,4.0
# From MPEC 2022-TA0
C/2018 U1 (Lemmon),h,11/03.1746/2021,108.3124,75.4869,180.4773,1.001536,4.993014,2000,5.0,4.0
# From MPC114604
C/2018 V1 (Machholz-Fujikawa-Iwamoto),h,12/02.8346/2018,144.0869,129.0215,89.0581,1.000347,0.389843,2000,12.0,4.0
# From MPC115884
C/2018 V2 (ATLAS),e,159.1675,357.0769,318.9990,25.05312,0.0078598,0.90086855,11.2987,11/02.0/2022,2000,g 15.0,4.0
# From MPC114604
P/2018 VN2 (Leonard),e,18.2625,226.4578,138.8380,4.063973,0.1203034,0.47892211,193.5484,11/02.0/2022,2000,g 15.0,4.0
# From MPEC 2021-P47
A/2018 V3,e,164.9676,308.6900,3.6007,126.9550,0.0006890,0.98943627,0.0000,09/09.0747/2019,2000,g 15.7,2.0
# From MPEC 2022-M21
C/2018 V4 (Africano),e,69.0197,78.2943,359.9375,200.7259,0.0003466,0.98408345,0.0000,03/01.4769/2019,2000,g 12.5,4.0
# From MPEC 2021-P47
P/2018 V5 (Trujillo-Sheppard),e,10.5890,171.2866,260.6595,8.959161,0.0367539,0.47542522,54.7815,11/02.0/2022,2000,g 12.5,4.0
# From MPEC 2021-P47
C/2018 W1 (Catalina),e,83.3611,233.6495,251.2167,21.68016,0.0097636,0.93730113,12.4016,11/02.0/2022,2000,g 15.5,2.0
# From MPEC 2021-P47
C/2018 W2 (Africano),h,09/05.3597/2019,116.6264,181.8162,158.0516,1.000532,1.459891,2000,9.5,4.0
# From MPEC 2022-Q17
A/2018 W3,e,104.8126,251.6693,313.9663,686.9878,0.0000547,0.99375448,0.0000,04/13.0486/2021,2000,g 10.5,2.0
# From MPC119996
C/2018 X2 (Fitzsimmons),e,23.0709,340.8190,161.9620,140.2523,0.0005934,0.98486921,0.0000,07/08.2100/2019,2000,g 12.0,4.0
# From MPC114604
C/2018 X3 (PANSTARRS),e,43.4015,78.8394,359.7386,12.37194,0.0226489,0.78243768,31.7540,11/02.0/2022,2000,g 14.5,4.0
# From MPC118842
C/2018 Y1 (Iwamoto),e,160.4057,147.4968,357.9316,131.7486,0.0006518,0.99025739,0.0000,02/06.1695/2019,2000,g 11.5,4.0
# From MPC114605
P/2018 Y2 (Africano),e,11.6834,297.2203,162.2442,7.453850,0.0484321,0.47907195,67.8224,11/02.0/2022,2000,g 11.5,4.0
# From MPC114605
P/2019 A1 (PANSTARRS),e,13.7489,312.2746,150.7100,5.117184,0.0851447,0.56892769,126.2816,11/02.0/2022,2000,g 16.0,4.0
# From MPEC 2021-P47
P/2019 A2 (ATLAS),e,14.8604,139.4555,323.8687,5.715052,0.0721396,0.38193229,104.0753,11/02.0/2022,2000,g 10.5,4.0
# From MPEC 2022-M21
P/2019 A3 (PANSTARRS),e,15.3749,31.2932,325.6256,3.144799,0.1767318,0.26608285,274.0338,11/02.0/2022,2000,g 16.0,4.0
# From MPEC 2022-L66
P/2019 A4 (PANSTARRS),e,13.3063,119.2433,342.9635,2.613420,0.2332869,0.08707531,331.7446,11/02.0/2022,2000,g 15.0,4.0
# From MPEC 2021-P47
C/2019 A5 (PANSTARRS),e,67.5548,146.6161,355.8279,21.50005,0.0098866,0.70622004,12.2998,11/02.0/2022,2000,g  9.5,4.0
# From MPC114605
P/2019 A6 (Lemmon-PANSTARRS),e,33.2569,280.2119,156.1815,5.358189,0.0794652,0.63972565,121.1985,11/02.0/2022,2000,g 16.0,4.0
# From MPC115884
P/2019 A8 (PANSTARRS),e,2.1928,114.5929,65.9432,4.268144,0.1117752,0.24437408,174.2660,11/02.0/2022,2000,g 16.0,4.0
# From MPC118842
C/2019 A9 (PANSTARRS),e,84.2246,278.3984,237.9259,39.16386,0.0040214,0.96346244,4.8056,11/02.0/2022,2000,g 15.0,4.0
# From MPEC 2022-L66
C/2019 B1 (Africano),e,123.3930,290.3926,174.7781,138.7872,0.0006028,0.98849252,0.0000,03/18.9019/2019,2000,g 16.0,4.0
# From MPC115885
P/2019 B2 (Groeller),e,17.0243,175.7439,1.0607,3.909208,0.1275178,0.36231265,159.3529,11/02.0/2022,2000,g 14.5,4.0
# From MPEC 2022-UY9
C/2019 B3 (PANSTARRS),h,01/20.4380/2021,66.5356,358.4364,263.9588,1.000528,6.824634,2000,5.5,4.0
# From MPEC 2021-P47
C/2019 C1 (ATLAS),e,36.0478,212.3895,319.1045,653.2926,0.0000590,0.98993116,0.0000,05/04.5485/2020,2000,g 10.0,4.0
# From MPEC 2022-O08
C/2019 D1 (Flewelling),e,34.0223,231.6740,70.6519,142.9735,0.0005765,0.98892032,0.0000,05/11.4670/2019,2000,g 13.0,4.0
# From MPEC 2022-UY9
C/2019 E3 (ATLAS),h,11/14.5844/2023,84.2974,347.2520,280.6721,1.000543,10.313243,2000,2.5,4.0
# From MPEC 2022-UY9
C/2019 F1 (ATLAS-Africano),h,06/23.0978/2021,54.1972,38.6880,251.2265,1.003621,3.598097,2000,5.5,4.0
# From MPEC 2021-P47
C/2019 F2 (ATLAS),e,19.2497,175.5066,11.5818,16.64450,0.0145144,0.86508581,16.7031,11/02.0/2022,2000,g 12.0,4.0
# From MPEC 2021-P47
A/2019 G2,e,159.2119,208.1575,82.6094,472.3017,0.0000960,0.99514537,0.0000,12/09.0061/2019,2000,g 16.5,2.0
# From MPEC 2021-F20
A/2019 G3,e,156.8098,49.8765,161.9339,17.21351,0.0138007,0.83438121,19.7171,11/02.0/2022,2000,g 17.1,2.0
# From MPEC 2022-P82
C/2019 G4 (PANSTARRS),h,09/15.9685/2018,138.3653,130.4582,287.8036,1.001936,5.851305,2000,9.5,4.0
# From MPC114607
P/2019 GG21 (PANSTARRS),e,6.0851,340.5629,208.6076,7.470564,0.0482696,0.47197692,61.3830,11/02.0/2022,2000,g 12.0,4.0
# From MPEC 2022-M21
C/2019 H1 (NEOWISE),e,104.4892,269.2527,19.3494,249.2774,0.0002504,0.99259570,0.0000,04/27.9879/2019,2000,g 15.5,4.0
# From MPEC 2022-O08
C/2019 J1 (Lemmon),e,24.5447,98.1381,167.7744,68.46517,0.0017398,0.96371752,2.2683,11/02.0/2022,2000,g 12.0,4.0
# From MPEC 2021-R75
C/2019 J2 (Palomar),e,105.2288,25.5545,98.7141,161.5461,0.0004800,0.98933023,0.0000,07/20.1170/2019,2000,g 13.0,4.0
# From MPC117071
C/2019 J3 (ATLAS),h,08/02.3252/2019,131.3713,270.5839,16.6205,1.000687,2.372779,2000,13.5,4.0
# From MPEC 2022-M21
C/2019 JU6 (ATLAS),e,148.3290,21.7611,95.0116,86671,0.0000000,0.99997639,0.0000,06/01.6075/2019,2000,g 14.5,4.0
# From MPEC 2022-O08
C/2019 K1 (ATLAS),e,87.0762,73.3520,265.7179,28703,0.0000002,0.99992987,0.0000,02/12.8819/2020,2000,g 10.0,4.0
# From MPC119997
C/2019 K4 (Ye),e,105.2965,180.1408,139.8422,1333,0.0000202,0.99830090,0.0000,06/15.7863/2019,2000,g 12.5,4.0
# From MPEC 2021-P47
C/2019 K5 (Young),e,15.3193,177.1265,175.1060,166.5441,0.0004586,0.98775181,0.0000,06/23.0709/2019,2000,g 13.0,4.0
# From MPEC 2021-P47
C/2019 K6 (PANSTARRS),e,132.3829,42.9856,187.6153,1756,0.0000134,0.99776420,0.0000,05/20.1523/2020,2000,g 11.5,4.0
# From MPEC 2022-TA0
C/2019 K7 (Smith),h,06/17.5114/2020,103.5384,307.9501,27.3894,1.000752,4.477928,2000,6.0,4.0
# From MPEC 2021-R75
C/2019 K8 (ATLAS),e,93.1675,291.0383,85.3857,2731,0.0000069,0.99883049,0.0000,07/21.7724/2019,2000,g 11.5,4.0
# From MPC118095
C/2019 L1 (PANSTARRS),e,9.9831,254.4291,50.0413,9.842549,0.0319185,0.70563485,37.6309,11/02.0/2022,2000,g 13.5,4.0
# From MPC115886
C/2019 L2 (NEOWISE),e,152.2103,12.5487,18.8214,24.97952,0.0078946,0.93493282,10.3438,11/02.0/2022,2000,g 16.0,4.0
# From MPEC 2022-UY9
P/2019 LD2 (ATLAS),e,11.6228,179.5973,120.9039,5.230733,0.0823873,0.12699318,79.2694,11/02.0/2022,2000,g  8.5,4.0
# From MPEC 2022-UY9
C/2019 L3 (ATLAS),h,01/09.6280/2022,48.3541,290.7855,171.6122,1.001903,3.554418,2000,4.5,4.0
# From MPC118095
C/2019 LB7 (Kleyna),e,164.2918,3.8846,336.5294,34.60476,0.0048417,0.92807841,6.3750,11/02.0/2022,2000,g 17.0,4.0
# From MPEC 2022-O08
P/2019 M2 (ATLAS),e,12.2746,307.6137,332.5664,3.028355,0.1870225,0.64759933,229.8209,11/02.0/2022,2000,g 21.2,4.0
# From MPC118095
C/2019 M3 (ATLAS),e,99.4960,154.9172,87.8854,12504,0.0000007,0.99980640,0.0000,01/01.3103/2019,2000,g 12.2,4.0
# From MPEC 2022-R68
C/2019 N1 (ATLAS),e,82.4296,13.5736,193.4351,2131,0.0000100,0.99919990,0.0000,12/01.5371/2020,2000,g  7.5,4.0
# From MPEC 2022-A21
C/2019 NJ3 (Lemmon),h,10/22.8225/2020,99.4297,142.4632,246.9029,1.002247,4.362709,2000,9.0,4.0
# From MPEC 2022-ST7
A/2019 O2,e,93.3027,48.2692,129.6524,57.68976,0.0022493,0.83215839,359.6479,11/02.0/2022,2000,g  9.5,2.0
# From MPEC 2022-UY9
C/2019 O3 (Palomar),h,03/09.3766/2021,89.8198,300.4063,60.1186,1.004187,8.820594,2000,3.5,4.0
# From MPEC 2021-P47
A/2019 O4,e,115.0957,354.9079,61.8959,33.20858,0.0051503,0.89019533,5.1264,11/02.0/2022,2000,g 15.5,2.0
# From MPEC 2021-N06
C/2019 Q1 (Lemmon),h,07/20.4562/2020,155.7272,42.4658,56.1688,1.000352,5.001336,2000,8.5,4.0
# From MPC117072
A/2019 Q2,e,159.0316,188.0050,176.3593,57.59686,0.0022548,0.97809566,0.0000,07/22.0279/2019,2000,g 18.0,2.0
# From MPC117072
C/2019 Q3 (PANSTARRS),h,08/21.5060/2018,65.5319,151.3299,152.7804,1.002847,7.263604,2000,8.5,4.0
# From MPC117072
P/2019 S2 (PANSTARRS),e,10.4677,93.1404,217.1289,4.741492,0.0954622,0.20604338,128.7452,11/02.0/2022,2000,g 13.5,4.0
# From MPEC 2022-CN4
P/2019 S3 (PANSTARRS),e,8.6940,150.1578,213.0327,3.415380,0.1561513,0.47122848,181.6135,11/02.0/2022,2000,g 18.3,4.0
# From MPEC 2021-S45
C/2019 S4 (Lemmon),e,92.0647,63.1501,71.3725,231.8381,0.0002792,0.98515097,0.0000,04/07.9465/2020,2000,g 11.0,4.0
# From MPEC 2022-L66
A/2019 T1,e,120.8773,6.9447,91.0724,38.64636,0.0041024,0.88920047,2.6924,11/02.0/2022,2000,g 13.0,2.0
# From MPEC 2022-L66
C/2019 T2 (Lemmon),e,111.4840,155.6462,239.4253,3247,0.0000053,0.99918498,0.0000,04/22.4499/2021,2000,g  9.0,4.0
# From MPEC 2022-UY9
C/2019 T3 (ATLAS),e,121.8471,139.5314,112.4238,3089,0.0000057,0.99807351,0.0000,03/04.0238/2021,2000,g  6.8,4.0
# From MPEC 2022-R68
C/2019 T4 (ATLAS),e,53.6312,199.9389,351.1883,984.5786,0.0000319,0.99569124,0.0000,06/09.0559/2022,2000,g  5.0,4.0
# From MPEC 2021-P47
P/2019 T5 (ATLAS),e,33.4730,247.6358,189.5616,7.996065,0.0435903,0.80939006,51.8055,11/02.0/2022,2000,g 15.0,4.0
# From MPEC 2021-P47
